STARLINK-2005
1 17600C 21009BE  21326.10330897  .00009420  00000-0  63110-3 0  3267
2 17600  53.0556 203.2772 0005693 310.6882 159.8692 15.06377313    14
